[{"OBJECT_NAME":"AISTECHSAT 2","OBJECT_ID":"2018-099L","EPOCH":"2026-03-09T16:20:03.228288","MEAN_MOTION":15.14339272,"ECCENTRICITY":0.00032581,"INCLINATION":97.4431,"RA_OF_ASC_NODE":118.9026,"ARG_OF_PERICENTER":288.6059,"MEAN_ANOMALY":71.4819,"EPHEMERIS_TYPE":0,"CLASSIFICATION_TYPE":"U","NORAD_CAT_ID":43768,"ELEMENT_SET_NO":999,"REV_AT_EPOCH":39721,"BSTAR":0.00042226412,"MEAN_MOTION_DOT":7.677e-5,"MEAN_MOTION_DDOT":0},{"OBJECT_NAME":"STARLINK-1812","OBJECT_ID":"2020-088E","EPOCH":"2026-03-09T21:44:17.393568","MEAN_MOTION":15.15107348,"ECCENTRICITY":0.00027492,"INCLINATION":53.0793,"RA_OF_ASC_NODE":298.6686,"ARG_OF_PERICENTER":128.8313,"MEAN_ANOMALY":231.2926,"EPHEMERIS_TYPE":0,"CLASSIFICATION_TYPE":"U","NORAD_CAT_ID":47126,"ELEMENT_SET_NO":999,"REV_AT_EPOCH":29190,"BSTAR":0.0020820336,"MEAN_MOTION_DOT":0.00039367,"MEAN_MOTION_DDOT":0}]
